0 COSMOS 1321
1 12976U 81116B   13281.82065473 -.00000021  00000-0 -55308-4 0  3019
2 12976 073.9829 217.1245 0093625 089.3380 332.3564 12.28346613428896
0 COSMOS 1321
1 12976U 81116B   13283.85522565 -.00000058  00000-0 -37706-3 0  3026
2 12976 073.9831 214.5210 0093613 086.3926 329.3442 12.28346779429145
0 COSMOS 1321
1 12976U 81116B   13286.13709729 -.00000005  00000-0  86026-4 0  3031
2 12976 073.9833 211.6011 0093657 083.0851 339.9179 12.28346321429421
0 COSMOS 1321
1 12976U 81116B   13288.19300598  .00000004  00000-0  15525-3 0  3044
2 12976 073.9833 208.9705 0093690 080.1069 071.2642 12.28346303429674
0 COSMOS 1321
1 12976U 81116B   13290.46598618  .00000036  00000-0  43408-3 0  3056
2 12976 073.9831 206.0623 0093695 076.8132 042.5152 12.28346095429954
0 COSMOS 1321
1 12976U 81116B   13292.80461100 -.00000006  00000-0  72193-4 0  3064
2 12976 073.9827 203.0703 0093716 073.4264 304.0436 12.28346708430244
0 COSMOS 1321
1 12976U 81116B   13294.85119157 -.00000012  00000-0  20325-4 0  3071
2 12976 073.9826 200.4517 0093753 070.4699 354.1349 12.28346777430499
